[{"OBJECT_NAME":"TIANMU-1 11","OBJECT_ID":"2023-205A","EPOCH":"2026-03-10T00:04:04.804896","MEAN_MOTION":15.25886825,"ECCENTRICITY":0.00089558,"INCLINATION":97.3549,"RA_OF_ASC_NODE":92.1484,"ARG_OF_PERICENTER":7.2987,"MEAN_ANOMALY":352.838,"EPHEMERIS_TYPE":0,"CLASSIFICATION_TYPE":"U","NORAD_CAT_ID":58645,"ELEMENT_SET_NO":999,"REV_AT_EPOCH":12239,"BSTAR":0.00031315232,"MEAN_MOTION_DOT":7.963e-5,"MEAN_MOTION_DDOT":0},{"OBJECT_NAME":"STARLINK-31678","OBJECT_ID":"2024-071K","EPOCH":"2026-03-09T03:33:43.652160","MEAN_MOTION":15.27584729,"ECCENTRICITY":8.465e-5,"INCLINATION":43.0011,"RA_OF_ASC_NODE":350.518,"ARG_OF_PERICENTER":274.2643,"MEAN_ANOMALY":85.8112,"EPHEMERIS_TYPE":0,"CLASSIFICATION_TYPE":"U","NORAD_CAT_ID":59493,"ELEMENT_SET_NO":999,"REV_AT_EPOCH":10685,"BSTAR":8.625168e-6,"MEAN_MOTION_DOT":-2.5e-7,"MEAN_MOTION_DDOT":0}]
